start=new Date('2023-04-01T00:00:00.000Z').valueOf();
sats=[{"MEAN_MOTION":"15.34735528","MEAN_ELEMENT_THEORY":"SGP4","GP_ID":"229199178","ECCENTRICITY":"0.00092180","TIME_SYSTEM":"UTC","ELEMENT_SET_NO":"999","EPOCH":"2023-03-31T14:45:25.790112","TLE_LINE2":"2 45195  53.0495 163.9335 0009218   5.5764 354.5339 15.34735528172352","ARG_OF_PERICENTER":"5.5764","RCS_SIZE":"LARGE","PERIOD":"93.827","CLASSIFICATION_TYPE":"U","TLE_LINE1":"1 45195U 20012T   23090.61488183  .00151294  00000-0  43480-2 0  9995","REF_FRAME":"TEME","SITE":"AFETR","RA_OF_ASC_NODE":"163.9335","FILE":"3876252","BSTAR":"0.00434800000000","MEAN_MOTION_DDOT":"0.0000000000000","MEAN_MOTION_DOT":"0.00151294","CENTER_NAME":"EARTH","SEMIMAJOR_AXIS":"6839.843","REV_AT_EPOCH":"17235","OBJECT_TYPE":"PAYLOAD","PERIAPSIS":"455.403","DECAY_DATE":null,"COUNTRY_CODE":"US","LAUNCH_DATE":"2020-02-17","INCLINATION":"53.0495","EPHEMERIS_TYPE":"0","OBJECT_NAME":"STARLINK-1241","MEAN_ANOMALY":"354.5339","OBJECT_ID":"2020-012T","APOAPSIS":"468.013","NORAD_CAT_ID":"45195"},{"TLE_LINE2":"2 45196  53.0518 188.1549 0001516  73.6124 286.5032 15.06335707172059","ARG_OF_PERICENTER":"73.6124","TIME_SYSTEM":"UTC","ELEMENT_SET_NO":"999","EPOCH":"2023-03-31T15:41:06.171360","MEAN_ELEMENT_THEORY":"SGP4","ECCENTRICITY":"0.00015160","GP_ID":"229201566","MEAN_MOTION":"15.06335707","SITE":"AFETR","RA_OF_ASC_NODE":"188.1549","TLE_LINE1":"1 45196U 20012U   23090.65354365 -.00008145  00000-0 -52942-3 0  9996","REF_FRAME":"TEME","PERIOD":"95.596","CLASSIFICATION_TYPE":"U","RCS_SIZE":"LARGE","PERIAPSIS":"546.361","REV_AT_EPOCH":"17205","OBJECT_TYPE":"PAYLOAD","MEAN_MOTION_DOT":"-0.00008145","CENTER_NAME":"EARTH","SEMIMAJOR_AXIS":"6925.546","FILE":"3876338","BSTAR":"-0.00052942000000","MEAN_MOTION_DDOT":"0.0000000000000","APOAPSIS":"548.461","NORAD_CAT_ID":"45196","OBJECT_NAME":"STARLINK-1244","EPHEMERIS_TYPE":"0","INCLINATION":"53.0518","MEAN_ANOMALY":"286.5032","OBJECT_ID":"2020-012U","DECAY_DATE":null,"LAUNCH_DATE":"2020-02-17","COUNTRY_CODE":"US"},{"ECCENTRICITY":"0.00009250","GP_ID":"229199194","MEAN_ELEMENT_THEORY":"SGP4","MEAN_MOTION":"15.06362031","TLE_LINE2":"2 45197  53.0530 188.2019 0000925  55.8929 304.2148 15.06362031172040","ARG_OF_PERICENTER":"55.8929","EPOCH":"2023-03-31T15:25:15.145824","ELEMENT_SET_NO":"999","TIME_SYSTEM":"UTC","CLASSIFICATION_TYPE":"U","PERIOD":"95.595","RCS_SIZE":"LARGE","RA_OF_ASC_NODE":"188.2019","SITE":"AFETR","REF_FRAME":"TEME","TLE_LINE1":"1 45197U 20012V   23090.64253641  .00043184  00000-0  29033-2 0  9995","SEMIMAJOR_AXIS":"6925.465","CENTER_NAME":"EARTH","MEAN_MOTION_DOT":"0.00043184","MEAN_MOTION_DDOT":"0.0000000000000","BSTAR":"0.00290330000000","FILE":"3876253","PERIAPSIS":"546.689","OBJECT_TYPE":"PAYLOAD","REV_AT_EPOCH":"17204","OBJECT_ID":"2020-012V","INCLINATION":"53.0530","MEAN_ANOMALY":"304.2148","EPHEMERIS_TYPE":"0","OBJECT_NAME":"STARLINK-1269","COUNTRY_CODE":"US","LAUNCH_DATE":"2020-02-17","DECAY_DATE":null,"NORAD_CAT_ID":"45197","APOAPSIS":"547.971"},{"OBJECT_NAME":"STARLINK-1154","EPHEMERIS_TYPE":"0","MEAN_ANOMALY":"252.6763","INCLINATION":"53.0524","OBJECT_ID":"2020-012W","DECAY_DATE":null,"LAUNCH_DATE":"2020-02-17","COUNTRY_CODE":"US","APOAPSIS":"548.236","NORAD_CAT_ID":"45198","MEAN_MOTION_DOT":"0.00036066","CENTER_NAME":"EARTH","SEMIMAJOR_AXIS":"6925.508","FILE":"3876289","BSTAR":"0.00243120000000","MEAN_MOTION_DDOT":"0.0000000000000","PERIAPSIS":"546.511","REV_AT_EPOCH":"17227","OBJECT_TYPE":"PAYLOAD","PERIOD":"95.595","CLASSIFICATION_TYPE":"U","RCS_SIZE":"LARGE","SITE":"AFETR","RA_OF_ASC_NODE":"168.8397","TLE_LINE1":"1 45198U 20012W   23090.50062034  .00036066  00000-0  24312-2 0  9991","REF_FRAME":"TEME","MEAN_ELEMENT_THEORY":"SGP4","GP_ID":"229200014","ECCENTRICITY":"0.00012450","MEAN_MOTION":"15.06347818","ARG_OF_PERICENTER":"107.4362","TLE_LINE2":"2 45198  53.0524 168.8397 0001245 107.4362 252.6763 15.06347818172278","TIME_SYSTEM":"UTC","ELEMENT_SET_NO":"999","EPOCH":"2023-03-31T12:00:53.597376"},{"RCS_SIZE":"LARGE","CLASSIFICATION_TYPE":"U","PERIOD":"95.595","REF_FRAME":"TEME","TLE_LINE1":"1 45199U 20012X   23090.23886730 -.00052655  00000-0 -35472-2 0  9992","RA_OF_ASC_NODE":"170.0148","SITE":"AFETR","MEAN_MOTION":"15.06348486","GP_ID":"229191424","ECCENTRICITY":"0.00013430","MEAN_ELEMENT_THEORY":"SGP4","EPOCH":"2023-03-31T05:43:58.134720","ELEMENT_SET_NO":"999","TIME_SYSTEM":"UTC","TLE_LINE2":"2 45199  53.0516 170.0148 0001343  94.0931 266.0212 15.06348486172237","ARG_OF_PERICENTER":"94.0931","LAUNCH_DATE":"2020-02-17","COUNTRY_CODE":"US","DECAY_DATE":null,"OBJECT_ID":"2020-012X","MEAN_ANOMALY":"266.0212","INCLINATION":"53.0516","OBJECT_NAME":"STARLINK-1197","EPHEMERIS_TYPE":"0","NORAD_CAT_ID":"45199","APOAPSIS":"548.302","MEAN_MOTION_DDOT":"0.0000000000000","BSTAR":"-0.00354720000000","FILE":"3875883","SEMIMAJOR_AXIS":"6925.506","CENTER_NAME":"EARTH","MEAN_MOTION_DOT":"-0.00052655","OBJECT_TYPE":"PAYLOAD","REV_AT_EPOCH":"17223","PERIAPSIS":"546.441"},{"LAUNCH_DATE":"2020-02-17","COUNTRY_CODE":"US","DECAY_DATE":null,"OBJECT_ID":"2020-012Z","INCLINATION":"53.0516","OBJECT_NAME":"STARLINK-1199","MEAN_ANOMALY":"281.5064","EPHEMERIS_TYPE":"0","NORAD_CAT_ID":"45201","APOAPSIS":"548.263","BSTAR":"0.00018852000000","MEAN_MOTION_DDOT":"0.0000000000000","FILE":"3876241","CENTER_NAME":"EARTH","SEMIMAJOR_AXIS":"6925.596","MEAN_MOTION_DOT":"0.00002522","OBJECT_TYPE":"PAYLOAD","REV_AT_EPOCH":"17227","PERIAPSIS":"546.660","RCS_SIZE":"LARGE","CLASSIFICATION_TYPE":"U","PERIOD":"95.597","REF_FRAME":"TEME","TLE_LINE1":"1 45201U 20012Z   23090.51166734  .00002522  00000-0  18852-3 0  9992","RA_OF_ASC_NODE":"168.7899","SITE":"AFETR","MEAN_MOTION":"15.06319162","GP_ID":"229199068","ECCENTRICITY":"0.00011570","MEAN_ELEMENT_THEORY":"SGP4","TIME_SYSTEM":"UTC","ELEMENT_SET_NO":"999","EPOCH":"2023-03-31T12:16:48.058176","TLE_LINE2":"2 45201  53.0516 168.7899 0001157  78.6055 281.5064 15.06319162172276","ARG_OF_PERICENTER":"78.6055"},{"MEAN_MOTION_DDOT":"0.0000000000000","BSTAR":"0.00490030000000","FILE":"3876534","SEMIMAJOR_AXIS":"6753.212","CENTER_NAME":"EARTH","MEAN_MOTION_DOT":"0.00510865","OBJECT_TYPE":"PAYLOAD","REV_AT_EPOCH":"17279","PERIAPSIS":"364.331","COUNTRY_CODE":"US","LAUNCH_DATE":"2020-02-17","DECAY_DATE":null,"OBJECT_ID":"2020-012AA","OBJECT_NAME":"STARLINK-1203","MEAN_ANOMALY":"332.7135","INCLINATION":"52.9510","EPHEMERIS_TYPE":"0","NORAD_CAT_ID":"45202","APOAPSIS":"385.823","MEAN_MOTION":"15.64361746","GP_ID":"229206670","ECCENTRICITY":"0.00159120","MEAN_ELEMENT_THEORY":"SGP4","EPOCH":"2023-03-31T19:28:47.532864","ELEMENT_SET_NO":"999","TIME_SYSTEM":"UTC","ARG_OF_PERICENTER":"27.4716","TLE_LINE2":"2 45202  52.9510 129.2666 0015912  27.4716 332.7135 15.64361746172797","RCS_SIZE":"LARGE","CLASSIFICATION_TYPE":"U","PERIOD":"92.050","REF_FRAME":"TEME","TLE_LINE1":"1 45202U 20012AA  23090.81166126  .00510865  00000-0  49003-2 0  9996","RA_OF_ASC_NODE":"129.2666","SITE":"AFETR"},{"TLE_LINE1":"1 45204U 20012AC  23090.47111267  .00013687  00000-0  93766-3 0  9992","REF_FRAME":"TEME","SITE":"AFETR","RA_OF_ASC_NODE":"168.9734","RCS_SIZE":"LARGE","PERIOD":"95.597","CLASSIFICATION_TYPE":"U","TIME_SYSTEM":"UTC","EPOCH":"2023-03-31T11:18:24.134688","ELEMENT_SET_NO":"999","ARG_OF_PERICENTER":"48.5910","TLE_LINE2":"2 45204  53.0518 168.9734 0001501  48.5910 311.5207 15.06331121172272","MEAN_MOTION":"15.06331121","MEAN_ELEMENT_THEORY":"SGP4","GP_ID":"229199257","ECCENTRICITY":"0.00015010","APOAPSIS":"548.464","NORAD_CAT_ID":"45204","DECAY_DATE":null,"COUNTRY_CODE":"US","LAUNCH_DATE":"2020-02-17","EPHEMERIS_TYPE":"0","OBJECT_NAME":"STARLINK-1206","MEAN_ANOMALY":"311.5207","INCLINATION":"53.0518","OBJECT_ID":"2020-012AC","REV_AT_EPOCH":"17227","OBJECT_TYPE":"PAYLOAD","PERIAPSIS":"546.385","FILE":"3876248","BSTAR":"0.00093766000000","MEAN_MOTION_DDOT":"0.0000000000000","MEAN_MOTION_DOT":"0.00013687","CENTER_NAME":"EARTH","SEMIMAJOR_AXIS":"6925.560"},{"RCS_SIZE":"LARGE","PERIOD":"95.593","CLASSIFICATION_TYPE":"U","TLE_LINE1":"1 45205U 20012AD  23090.62595223  .00042093  00000-0  28296-2 0  9996","REF_FRAME":"TEME","SITE":"AFETR","RA_OF_ASC_NODE":"168.2783","MEAN_MOTION":"15.06378581","MEAN_ELEMENT_THEORY":"SGP4","ECCENTRICITY":"0.00014760","GP_ID":"229199122","ELEMENT_SET_NO":"999","EPOCH":"2023-03-31T15:01:22.272672","TIME_SYSTEM":"UTC","TLE_LINE2":"2 45205  53.0538 168.2783 0001476  56.0148 304.0981 15.06378581172301","ARG_OF_PERICENTER":"56.0148","DECAY_DATE":null,"LAUNCH_DATE":"2020-02-17","COUNTRY_CODE":"US","MEAN_ANOMALY":"304.0981","INCLINATION":"53.0538","EPHEMERIS_TYPE":"0","OBJECT_NAME":"STARLINK-1208","OBJECT_ID":"2020-012AD","APOAPSIS":"548.301","NORAD_CAT_ID":"45205","FILE":"3876248","MEAN_MOTION_DDOT":"0.0000000000000","BSTAR":"0.00282960000000","MEAN_MOTION_DOT":"0.00042093","SEMIMAJOR_AXIS":"6925.414","CENTER_NAME":"EARTH","REV_AT_EPOCH":"17230","OBJECT_TYPE":"PAYLOAD","PERIAPSIS":"546.257"},{"RA_OF_ASC_NODE":"150.2387","SITE":"AFETR","REF_FRAME":"TEME","TLE_LINE1":"1 45206U 20012AE  23090.18910296 -.00030697  00000-0 -20534-2 0  9995","CLASSIFICATION_TYPE":"U","PERIOD":"95.595","RCS_SIZE":"LARGE","TLE_LINE2":"2 45206  53.0532 150.2387 0001165  95.1467 264.9654 15.06354274172494","ARG_OF_PERICENTER":"95.1467","ELEMENT_SET_NO":"999","EPOCH":"2023-03-31T04:32:18.495744","TIME_SYSTEM":"UTC","GP_ID":"229191446","ECCENTRICITY":"0.00011650","MEAN_ELEMENT_THEORY":"SGP4","MEAN_MOTION":"15.06354274","NORAD_CAT_ID":"45206","APOAPSIS":"548.161","OBJECT_ID":"2020-012AE","INCLINATION":"53.0532","MEAN_ANOMALY":"264.9654","EPHEMERIS_TYPE":"0","OBJECT_NAME":"STARLINK-1209","COUNTRY_CODE":"US","LAUNCH_DATE":"2020-02-17","DECAY_DATE":null,"PERIAPSIS":"546.547","OBJECT_TYPE":"PAYLOAD","REV_AT_EPOCH":"17249","SEMIMAJOR_AXIS":"6925.489","CENTER_NAME":"EARTH","MEAN_MOTION_DOT":"-0.00030697","MEAN_MOTION_DDOT":"0.0000000000000","BSTAR":"-0.00205340000000","FILE":"3875884"}];
